KZ-11 R/B               
1 69628U 26138H   26193.90834216  .00780150  97501-5  75497-3 0  9998
2 69628  55.1520 167.7492 0377051 143.6026 219.1292 15.43010363  3894
CENTISPACE-1 GROUP 05 O*
1 69636U 26138J   26194.40472368 -.00000256  00000+0 -51944-4 0  9997
2 69636  55.1383 184.3032 0009547 341.3483  18.7141 14.15842380  3707
VICTUS HAZE PUMA        
1 69646U 26142A   26195.78469194  .00001975  00000+0  92002-4 0  9995
2 69646  97.4467  93.0928 0025040 267.3590  92.4779 15.20845903  3866
HOKUSHIN-1              
1 69648U 98067YH  26195.13314833  .00016666  00000+0  28922-3 0  9992
2 69648  51.6306 166.5042 0006103 326.5773  33.4830 15.50968424  3832
STARLINK-37656          
1 69649U 26143A   26195.63512706  .00023498  00000+0  43208-3 0  9998
2 69649  97.2863 239.5107 0000182 187.6513 172.4735 15.49212678  4794
STARLINK-37646          
1 69650U 26143B   26195.83335647 -.00014136  00000+0 -25862-3 0  9996
2 69650  97.2843 239.8904 0001810  90.8241 344.9711 15.49197467  4905
STARLINK-37749          
1 69651U 26143C   26195.83335647 -.00010193  00000+0 -18599-3 0  9995
2 69651  97.2842 239.8737 0000746 130.0118 267.4613 15.49191650  4904
STARLINK-37819          
1 69652U 26143D   26195.83335647 -.00014087  00000+0 -25775-3 0  9996
2 69652  97.2838 239.8462 0001374  82.6406 250.3322 15.49195745  4902
STARLINK-37729          
1 69653U 26143E   26195.68482147  .00192864  00000+0  86475-3 0  9990
2 69653  97.2805 240.0593 0001600 184.2868 175.8388 15.83643022  4838
STARLINK-37838          
1 69654U 26143F   26195.83335647 -.00015122  00000+0 -27681-3 0  9997
2 69654  97.2841 239.9160 0001209  74.9208  63.0691 15.49200411  4900
STARLINK-37884          
1 69655U 26143G   26195.65280975  .00019842  00000+0  36535-3 0  9990
2 69655  97.2839 239.6430 0001440  90.8009 269.3407 15.49206466  4809
STARLINK-37876          
1 69656U 26143H   26195.83335647 -.00011903  00000+0 -21743-3 0  9995
2 69656  97.2842 239.9158 0001348  96.5020  39.0769 15.49200479  4808
STARLINK-37784          
1 69657U 26143J   26195.83335647 -.00003045  00000+0 -54394-4 0  9993
2 69657  97.2835 239.8447 0001288  98.4380 229.5264 15.49161766  4805
STARLINK-37851          
1 69658U 26143K   26195.83335647 -.00013365  00000+0 -24440-3 0  9998
2 69658  97.2842 239.9101 0000912 102.6574  20.9240 15.49200566  4795
STARLINK-37229          
1 69659U 26143L   26195.83335647 -.00012536  00000+0 -22912-3 0  9990
2 69659  97.2844 239.8634 0001497  95.0607 279.8544 15.49197219  4847
STARLINK-37556          
1 69660U 26143M   26195.83335647 -.02453831  00000+0 -57503-1 0  9993
2 69660  97.2844 239.8939 0001493  81.9190 352.7733 15.45594422  4848
STARLINK-37867          
1 69661U 26143N   26195.83335647  .00055221  00000+0  10105-2 0  9999
2 69661  97.2841 239.9089 0001768  82.1650  39.9593 15.49171911  4804
STARLINK-37852          
1 69662U 26143P   26195.83335647 -.00012794  00000+0 -23390-3 0  9991
2 69662  97.2839 239.8335 0001385  91.2492 213.8615 15.49195095  4802
STARLINK-37554          
1 69663U 26143Q   26195.83335647 -.00009103  00000+0 -16584-3 0  9999
2 69663  97.2844 239.8873 0001001 100.2244 329.1493 15.49202010  4842
STARLINK-37830          
1 69664U 26143R   26195.83335647 -.00016771  00000+0 -30729-3 0  9996
2 69664  97.2840 239.8498 0001689  91.6593 253.4631 15.49193795  4790
STARLINK-37837          
1 69665U 26143S   26195.83335647 -.00023558  00000+0 -65215-3 0  9996
2 69665  97.2835 239.8975 0001258  83.3864 359.4745 15.36972466  4807
STARLINK-37943          
1 69666U 26143T   26195.83335647 -.00011548  00000+0 -21092-3 0  9998
2 69666  97.2842 239.8522 0001683  91.2121 256.8724 15.49197194  4808
STARLINK-37941          
1 69667U 26143U   26195.83335647 -.00016514  00000+0 -30251-3 0  9994
2 69667  97.2843 239.8813 0001101  88.1507 330.3080 15.49199229  4805
STARLINK-37930          
1 69668U 26143V   26195.83335647 -.00014625  00000+0 -26797-3 0  9996
2 69668  97.2843 239.8834 0000992 101.5878 319.8272 15.49165776  4790
STARLINK-37945          
1 69669U 26143W   26195.83335647 -.00017268  00000+0 -31640-3 0  9996
2 69669  97.2841 239.9133 0001422  96.8273  36.5196 15.49199726  4808
STARLINK-37948          
1 69670U 26143X   26195.66358225  .00024748  00000+0  45491-3 0  9994
2 69670  97.2831 239.6296 0002029 111.8163 248.3304 15.49210762  4736
STARLINK-37949          
1 69671U 26143Y   26195.83335647 -.00009717  00000+0 -17716-3 0  9997
2 69671  97.2841 239.8583 0000822  97.4963 264.8524 15.49197965  4809
STARLINK-37946          
1 69672U 26143Z   26195.83335647 -.00019955  00000+0 -36604-3 0  9990
2 69672  97.2843 239.8918 0001327  91.7686 348.2333 15.49198357  4805
TJS-26A                 
1 69674U 26144A   26193.29904564 -.00000341  00000+0  00000+0 0  9996
2 69674   6.9538 323.2302 0004208 347.4913 194.6526  1.00274367   198
CZ-7A R/B               
1 69675U 26144B   26195.69194389  .00841495  18155-4  93323-3 0  9990
2 69675  19.4463 315.2678 7100117 196.2857 116.7267  2.58946557   550
