OBJECT_NAME,OBJECT_ID,EPOCH,MEAN_MOTION,ECCENTRICITY,INCLINATION,RA_OF_ASC_NODE,ARG_OF_PERICENTER,MEAN_ANOMALY,EPHEMERIS_TYPE,CLASSIFICATION_TYPE,NORAD_CAT_ID,ELEMENT_SET_NO,REV_AT_EPOCH,BSTAR,MEAN_MOTION_DOT,MEAN_MOTION_DDOT
KZ-11 R/B,2026-138H,2026-07-12T21:48:00.762624,15.43010363,.03770511,55.1520,167.7492,143.6026,219.1292,0,U,69628,999,389,.75497354E-3,.78015E-2,.9750105E-5
CENTISPACE-1 GROUP 05 OBJECT J,2026-138J,2026-07-13T09:42:48.125952,14.15842380,.00095471,55.1383,184.3032,341.3483,18.7141,0,U,69636,999,370,-.51944164E-4,-.256E-5,0
VICTUS HAZE PUMA,2026-142A,2026-07-14T18:49:57.383616,15.20845903,.002504,97.4467,93.0928,267.3590,92.4779,0,U,69646,999,386,.92002E-4,.1975E-4,0
HOKUSHIN-1,1998-067YH,2026-07-14T03:11:44.015712,15.50968424,.00061032,51.6306,166.5042,326.5773,33.4830,0,U,69648,999,383,.28921728E-3,.16666E-3,0
STARLINK-37656,2026-143A,2026-07-14T15:14:34.977984,15.49212678,.0000182,97.2863,239.5107,187.6513,172.4735,0,U,69649,999,479,.43208E-3,.23498E-3,0
STARLINK-37646,2026-143B,2026-07-14T20:00:01.999008,15.49197467,.000181,97.2843,239.8904,90.8241,344.9711,0,U,69650,999,490,-.25862E-3,-.14136E-3,0
STARLINK-37749,2026-143C,2026-07-14T20:00:01.999008,15.49191650,.0000746,97.2842,239.8737,130.0118,267.4613,0,U,69651,999,490,-.18599E-3,-.10193E-3,0
STARLINK-37819,2026-143D,2026-07-14T20:00:01.999008,15.49195745,.0001374,97.2838,239.8462,82.6406,250.3322,0,U,69652,999,490,-.25775E-3,-.14087E-3,0
STARLINK-37729,2026-143E,2026-07-14T16:26:08.575008,15.83643022,.00016,97.2805,240.0593,184.2868,175.8388,0,U,69653,999,483,.86475E-3,.192864E-2,0
STARLINK-37838,2026-143F,2026-07-14T20:00:01.999008,15.49200411,.0001209,97.2841,239.9160,74.9208,63.0691,0,U,69654,999,490,-.27681E-3,-.15122E-3,0
STARLINK-37884,2026-143G,2026-07-14T15:40:02.762400,15.49206466,.000144,97.2839,239.6430,90.8009,269.3407,0,U,69655,999,480,.36535E-3,.19842E-3,0
STARLINK-37876,2026-143H,2026-07-14T20:00:01.999008,15.49200479,.0001348,97.2842,239.9158,96.5020,39.0769,0,U,69656,999,480,-.21743E-3,-.11903E-3,0
STARLINK-37784,2026-143J,2026-07-14T20:00:01.999008,15.49161766,.0001288,97.2835,239.8447,98.4380,229.5264,0,U,69657,999,480,-.54394E-4,-.3045E-4,0
STARLINK-37851,2026-143K,2026-07-14T20:00:01.999008,15.49200566,.0000912,97.2842,239.9101,102.6574,20.9240,0,U,69658,999,479,-.2444E-3,-.13365E-3,0
STARLINK-37229,2026-143L,2026-07-14T20:00:01.999008,15.49197219,.0001497,97.2844,239.8634,95.0607,279.8544,0,U,69659,999,484,-.22912E-3,-.12536E-3,0
STARLINK-37556,2026-143M,2026-07-14T20:00:01.999008,15.45594422,.0001493,97.2844,239.8939,81.9190,352.7733,0,U,69660,999,484,-.57503E-1,-.2453831E-1,0
STARLINK-37867,2026-143N,2026-07-14T20:00:01.999008,15.49171911,.0001768,97.2841,239.9089,82.1650,39.9593,0,U,69661,999,480,.10105E-2,.55221E-3,0
STARLINK-37852,2026-143P,2026-07-14T20:00:01.999008,15.49195095,.0001385,97.2839,239.8335,91.2492,213.8615,0,U,69662,999,480,-.2339E-3,-.12794E-3,0
STARLINK-37554,2026-143Q,2026-07-14T20:00:01.999008,15.49202010,.0001001,97.2844,239.8873,100.2244,329.1493,0,U,69663,999,484,-.16584E-3,-.9103E-4,0
STARLINK-37830,2026-143R,2026-07-14T20:00:01.999008,15.49193795,.0001689,97.2840,239.8498,91.6593,253.4631,0,U,69664,999,479,-.30729E-3,-.16771E-3,0
STARLINK-37837,2026-143S,2026-07-14T20:00:01.999008,15.36972466,.0001258,97.2835,239.8975,83.3864,359.4745,0,U,69665,999,480,-.65215E-3,-.23558E-3,0
STARLINK-37943,2026-143T,2026-07-14T20:00:01.999008,15.49197194,.0001683,97.2842,239.8522,91.2121,256.8724,0,U,69666,999,480,-.21092E-3,-.11548E-3,0
STARLINK-37941,2026-143U,2026-07-14T20:00:01.999008,15.49199229,.0001101,97.2843,239.8813,88.1507,330.3080,0,U,69667,999,480,-.30251E-3,-.16514E-3,0
STARLINK-37930,2026-143V,2026-07-14T20:00:01.999008,15.49165776,.0000992,97.2843,239.8834,101.5878,319.8272,0,U,69668,999,479,-.26797E-3,-.14625E-3,0
STARLINK-37945,2026-143W,2026-07-14T20:00:01.999008,15.49199726,.0001422,97.2841,239.9133,96.8273,36.5196,0,U,69669,999,480,-.3164E-3,-.17268E-3,0
STARLINK-37948,2026-143X,2026-07-14T15:55:33.506400,15.49210762,.0002029,97.2831,239.6296,111.8163,248.3304,0,U,69670,999,473,.45491E-3,.24748E-3,0
STARLINK-37949,2026-143Y,2026-07-14T20:00:01.999008,15.49197965,.0000822,97.2841,239.8583,97.4963,264.8524,0,U,69671,999,480,-.17716E-3,-.9717E-4,0
STARLINK-37946,2026-143Z,2026-07-14T20:00:01.999008,15.49198357,.0001327,97.2843,239.8918,91.7686,348.2333,0,U,69672,999,480,-.36604E-3,-.19955E-3,0
TJS-26A,2026-144A,2026-07-12T07:10:37.543296,1.00274367,.0004208,6.9538,323.2302,347.4913,194.6526,0,U,69674,999,19,0,-.341E-5,0
CZ-7A R/B,2026-144B,2026-07-14T16:36:23.952096,2.58946557,.7100117,19.4463,315.2678,196.2857,116.7267,0,U,69675,999,55,.93323E-3,.841495E-2,.18155E-4
